ONEWEB-0501             
1 54119U 22138G   24074.50691805  .00000052  00000+0  96283-4 0  9995
2 54119  87.9114 109.1288 0001947  76.2037 283.9312 13.19726180 68906
ONEWEB-0502             
1 54120U 22138H   24074.11360562  .00000179  00000+0  41431-3 0  9991
2 54120  87.9116 109.1981 0002048  84.0778 276.0588 13.19726719 68009
ONEWEB-0503             
1 54121U 22138J   24074.17838697  .00000025  00000+0  29260-4 0  9994
2 54121  87.9114 109.1923 0002382  98.0761 262.0642 13.19725338 68004
ONEWEB-0504             
1 54122U 22138K   24074.46900536 -.00000038  00000+0 -12835-3 0  9994
2 54122  87.9117 109.1379 0002223  85.6688 274.4698 13.19726332 68921
ONEWEB-0505             
1 54123U 22138L   24074.54166188  .00000077  00000+0  15950-3 0  9993
2 54123  87.9114 109.1197 0002090  71.8934 288.2426 13.19727302 68919
ONEWEB-0506             
1 54124U 22138M   24074.51638657  .00000055  00000+0  10411-3 0  9999
2 54124  87.9113 109.1214 0001924  85.5532 274.5820 13.19727394 68906
ONEWEB-0507             
1 54125U 22138N   24074.15783469  .00000061  00000+0  12012-3 0  9998
2 54125  87.9123 109.2063 0001804  84.9139 275.2199 13.19727709 68035
ONEWEB-0508             
1 54126U 22138P   24074.15466704  .00000016  00000+0  66137-5 0  9998
2 54126  87.9120 109.2031 0001787  80.3422 279.7912 13.19726516 68018
